KUIPER-00251            
1 67156U 25301Z   26025.97154759  .00048987  00000+0  13786-2 0  9990
2 67156  51.8660 271.9230 0009527 240.0982 119.9058 15.35948964  7357
KUIPER-00252            
1 67157U 25301AA  26025.91735724  .00046717  00000+0  13248-2 0  9994
2 67157  51.8660 272.3018 0011076 246.3743 113.6080 15.35715411  7156
KUIPER-00261            
1 67158U 25301AB  26023.73956524  .00039745  00000+0  10901-2 0  9992
2 67158  51.8684 282.4808 0007136 217.2277 142.8216 15.36863797  6823
KUIPER-00265            
1 67159U 25301AC  26026.25002315 -.01625027  00000+0 -15856+0 0  9991
2 67159  51.8930 273.6117 0002923 238.7730 223.6742 14.95463656  5188
